XRISM                   
1 57800U 23137A   26077.81944874  .00004570  00000+0  25691-3 0  9994
2 57800  31.0010 224.6050 0007923 130.8278 229.3048 15.11599686139176
ACS3                    
1 59588U 24077B   26077.78507820  .00015622  00000+0  12442-1 0  9993
2 59588  97.2022  16.8527 0067626  55.1903 305.5599 13.89992755 95466
SZ-21 MODULE            
1 66515U 25246C   26077.53946753  .00028586  00000+0  24029-3 0  9994
2 66515  41.4738 148.8547 0000477 292.1706  67.9085 15.69230343 19465
