CCSDS_OMM_VERS = 2.0
CREATION_DATE  = 
ORIGINATOR     = 

OBJECT_NAME    = XRISM
OBJECT_ID      = 2023-137A
CENTER_NAME    = EARTH
REF_FRAME      = TEME
TIME_SYSTEM    = UTC
MEAN_ELEMENT_THEORY = SGP/SGP4

EPOCH          = 2026-03-18T19:40:00.371136
MEAN_MOTION    = 15.11599686
ECCENTRICITY   = .0007923
INCLINATION    = 31.0010
RA_OF_ASC_NODE = 224.6050
ARG_OF_PERICENTER = 130.8278
MEAN_ANOMALY   = 229.3048

EPHEMERIS_TYPE = 0
CLASSIFICATION_TYPE = U
NORAD_CAT_ID   = 57800
ELEMENT_SET_NO = 999
REV_AT_EPOCH   = 13917
BSTAR          = .25691E-3
MEAN_MOTION_DOT = .457E-4
MEAN_MOTION_DDOT = 0

CCSDS_OMM_VERS = 2.0
CREATION_DATE  = 
ORIGINATOR     = 

OBJECT_NAME    = ACS3
OBJECT_ID      = 2024-077B
CENTER_NAME    = EARTH
REF_FRAME      = TEME
TIME_SYSTEM    = UTC
MEAN_ELEMENT_THEORY = SGP/SGP4

EPOCH          = 2026-03-18T18:50:30.756480
MEAN_MOTION    = 13.89992755
ECCENTRICITY   = .0067626
INCLINATION    = 97.2022
RA_OF_ASC_NODE = 16.8527
ARG_OF_PERICENTER = 55.1903
MEAN_ANOMALY   = 305.5599

EPHEMERIS_TYPE = 0
CLASSIFICATION_TYPE = U
NORAD_CAT_ID   = 59588
ELEMENT_SET_NO = 999
REV_AT_EPOCH   = 9546
BSTAR          = .12442E-1
MEAN_MOTION_DOT = .15622E-3
MEAN_MOTION_DDOT = 0

CCSDS_OMM_VERS = 2.0
CREATION_DATE  = 
ORIGINATOR     = 

OBJECT_NAME    = SZ-21 MODULE
OBJECT_ID      = 2025-246C
CENTER_NAME    = EARTH
REF_FRAME      = TEME
TIME_SYSTEM    = UTC
MEAN_ELEMENT_THEORY = SGP/SGP4

EPOCH          = 2026-03-18T12:56:49.994592
MEAN_MOTION    = 15.69230343
ECCENTRICITY   = .00004776
INCLINATION    = 41.4738
RA_OF_ASC_NODE = 148.8547
ARG_OF_PERICENTER = 292.1706
MEAN_ANOMALY   = 67.9085

EPHEMERIS_TYPE = 0
CLASSIFICATION_TYPE = U
NORAD_CAT_ID   = 66515
ELEMENT_SET_NO = 999
REV_AT_EPOCH   = 1946
BSTAR          = .24028713E-3
MEAN_MOTION_DOT = .28586E-3
MEAN_MOTION_DDOT = 0

